$$SOE
2460154.500000000, A.D. 2023-Jul-29 00:00:00.0000, 1.400919835182370E+08, 2.537361087057142E+08, 7.128710145416662E+06,
2460161.500000000, A.D. 2023-Aug-05 00:00:00.0000, 1.279018741489305E+08, 2.599571715484570E+08, 8.117954790842369E+06,
2460168.500000000, A.D. 2023-Aug-12 00:00:00.0000, 1.154568899573976E+08, 2.656600414802629E+08, 9.091011100703642E+06,
2460175.500000000, A.D. 2023-Aug-19 00:00:00.0000, 1.027817700605241E+08, 2.708332122665986E+08, 1.004593516155578E+07,
2460182.500000000, A.D. 2023-Aug-26 00:00:00.0000, 8.990187823895492E+07, 2.754666302674407E+08, 1.098083314646472E+07,
2460189.500000000, A.D. 2023-Sep-02 00:00:00.0000, 7.684309478041574E+07, 2.795517343274318E+08, 1.189386921916002E+07,
2460196.500000000, A.D. 2023-Sep-09 00:00:00.0000, 6.363170531950370E+07, 2.830814852669289E+08, 1.278327299892820E+07,
2460203.500000000, A.D. 2023-Sep-16 00:00:00.0000, 5.029428802767771E+07, 2.860503846880620E+08, 1.364734649144353E+07,
2460210.500000000, A.D. 2023-Sep-23 00:00:00.0000, 3.685760076718328E+07, 2.884544833175784E+08, 1.448447040485762E+07,
2460217.500000000, A.D. 2023-Sep-30 00:00:00.0000, 2.334846905780100E+07, 2.902913801773358E+08, 1.529310992336160E+07,
2460224.500000000, A.D. 2023-Oct-07 00:00:00.0000, 9.793673663378552E+06, 2.915602122839856E+08, 1.607182006288987E+07,
2460231.500000000, A.D. 2023-Oct-14 00:00:00.0000, -3.780160073926357E+06, 2.922616319373168E+08, 1.681925020820943E+07,
2460238.500000000, A.D. 2023-Oct-21 00:00:00.0000, -1.734666691850499E+07, 2.923977737376558E+08, 1.753414764551853E+07,
2460245.500000000, A.D. 2023-Oct-28 00:00:00.0000, -3.087984093568507E+07, 2.919722142494325E+08, 1.821536039452453E+07,
2460252.500000000, A.D. 2023-Nov-04 00:00:00.0000, -4.435412961917797E+07, 2.909899242731207E+08, 1.886183939040004E+07,
2460259.500000000, A.D. 2023-Nov-11 00:00:00.0000, -5.774452206756061E+07, 2.894572139307499E+08, 1.947263995894545E+07,
2460266.500000000, A.D. 2023-Nov-18 00:00:00.0000, -7.102663041088742E+07, 2.873816713558300E+08, 2.004692257684292E+07,
2460273.500000000, A.D. 2023-Nov-25 00:00:00.0000, -8.417676397536321E+07, 2.847720959008276E+08, 2.058395293895164E+07,
2460280.500000000, A.D. 2023-Dec-02 00:00:00.0000, -9.717199585885224E+07, 2.816384267744154E+08, 2.108310136655952E+07,
2460287.500000000, A.D. 2023-Dec-09 00:00:00.0000, -1.099902216634081E+08, 2.779916679935074E+08, 2.154384159095249E+07,
2460294.500000000, A.D. 2023-Dec-16 00:00:00.0000, -1.226102100273090E+08, 2.738438105965694E+08, 2.196574893816435E+07,
2460301.500000000, A.D. 2023-Dec-23 00:00:00.0000, -1.350116446400217E+08, 2.692077536996441E+08, 2.234849799239528E+07,
2460308.500000000, A.D. 2023-Dec-30 00:00:00.0000, -1.471751592139498E+08, 2.640972262874111E+08, 2.269186000149362E+07,
2460315.500000000, A.D. 2024-Jan-06 00:00:00.0000, -1.590823674035244E+08, 2.585267081643605E+08, 2.299570004949413E+07,
2460322.500000000, A.D. 2024-Jan-13 00:00:00.0000, -1.707158847864826E+08, 2.525113489609043E+08, 2.325997361244678E+07,
2460329.500000000, A.D. 2024-Jan-20 00:00:00.0000, -1.820593420541193E+08, 2.460668889121033E+08, 2.348472269266984E+07,
2460336.500000000, A.D. 2024-Jan-27 00:00:00.0000, -1.930973918594579E+08, 2.392095826417702E+08, 2.367007182411893E+07,
2460343.500000000, A.D. 2024-Feb-03 00:00:00.0000, -2.038157101978867E+08, 2.319561254975604E+08, 2.381622396003523E+07,
2460350.500000000, A.D. 2024-Feb-10 00:00:00.0000, -2.142009925211338E+08, 2.243235825548153E+08, 2.392345624011618E+07,
2460357.500000000, A.D. 2024-Feb-17 00:00:00.0000, -2.242409449488194E+08, 2.163293206340552E+08, 2.399211566952918E+07,
2460364.500000000, A.D. 2024-Feb-24 00:00:00.0000, -2.339242710565710E+08, 2.079909436188468E+08, 2.402261475026248E+07,
2460371.500000000, A.D. 2024-Mar-02 00:00:00.0000, -2.432406547253923E+08, 1.993262312528678E+08, 2.401542709961951E+07,
2460378.500000000, A.D. 2024-Mar-09 00:00:00.0000, -2.521807394152204E+08, 1.903530815063725E+08, 2.397108307444738E+07,
2460385.500000000, A.D. 2024-Mar-16 00:00:00.0000, -2.607361039489862E+08, 1.810894568053538E+08, 2.389016541266353E+07,
2460392.500000000, A.D. 2024-Mar-23 00:00:00.0000, -2.688992353692238E+08, 1.715533352741663E+08, 2.377330501889418E+07,
2460399.500000000, A.D. 2024-Mar-30 00:00:00.0000, -2.766635015453175E+08, 1.617626669598531E+08, 2.362117711980558E+07,
2460406.500000000, A.D. 2024-Apr-06 00:00:00.0000, -2.840231236852652E+08, 1.517353316302223E+08, 2.343449750881036E+07,
2460413.500000000, A.D. 2024-Apr-13 00:00:00.0000, -2.909731455684762E+08, 1.414890989029931E+08, 2.321401863726270E+07,
2460420.500000000, A.D. 2024-Apr-20 00:00:00.0000, -2.975094007923857E+08, 1.310415932639690E+08, 2.296052586934828E+07,
2460427.500000000, A.D. 2024-Apr-27 00:00:00.0000, -3.036284798740598E+08, 1.204102632791349E+08, 2.267483400281188E+07,
2460434.500000000, A.D. 2024-May-04 00:00:00.0000, -3.093276974075263E+08, 1.096123541523323E+08, 2.235778399647880E+07,
2460441.500000000, A.D. 2024-May-11 00:00:00.0000, -3.146050592909965E+08, 9.866488336456178E+07, 2.201023987841064E+07,
2460448.500000000, A.D. 2024-May-18 00:00:00.0000, -3.194592301654379E+08, 8.758461924246198E+07, 2.163308583087128E+07,
2460455.500000000, A.D. 2024-May-25 00:00:00.0000, -3.238895012360395E+08, 7.638806226856565E+07, 2.122722344942176E+07,
2460462.500000000, A.D. 2024-Jun-01 00:00:00.0000, -3.278957585865383E+08, 6.509142889265336E+07, 2.079356916460937E+07,
2460469.500000000, A.D. 2024-Jun-08 00:00:00.0000, -3.314784518846171E+08, 5.371063763736778E+07, 2.033305179911572E+07,
2460476.500000000, A.D. 2024-Jun-15 00:00:00.0000, -3.346385631995375E+08, 4.226129786049068E+07, 1.984661026446544E+07,
2460483.500000000, A.D. 2024-Jun-22 00:00:00.0000, -3.373775770363994E+08, 3.075870216848324E+07, 1.933519158073566E+07,
2460490.500000000, A.D. 2024-Jun-29 00:00:00.0000, -3.396974537920393E+08, 1.921782048367856E+07, 1.879974925951861E+07,
2460497.500000000, A.D. 2024-Jul-06 00:00:00.0000, -3.416006040568593E+08, 7.653293126256265E+06, 1.824124159972484E+07,
2460504.500000000, A.D. 2024-Jul-13 00:00:00.0000, -3.430898618595288E+08, -3.920574423076699E+06, 1.766062994197827E+07,
2460511.500000000, A.D. 2024-Jul-20 00:00:00.0000, -3.441684588677323E+08, -1.548981408714544E+07, 1.705887715051488E+07,
2460518.500000000, A.D. 2024-Jul-27 00:00:00.0000, -3.448400002247210E+08, -2.704079619347188E+07, 1.643694629682933E+07,
2460525.500000000, A.D. 2024-Aug-03 00:00:00.0000, -3.451084417660542E+08, -3.856022942456954E+07, 1.579579948205320E+07,
2460532.500000000, A.D. 2024-Aug-10 00:00:00.0000, -3.449780684536626E+08, -5.003515984607114E+07, 1.513639677515022E+07,
2460539.500000000, A.D. 2024-Aug-17 00:00:00.0000, -3.444534739682205E+08, -6.145296910656093E+07, 1.445969525682598E+07,
2460546.500000000, A.D. 2024-Aug-24 00:00:00.0000, -3.435395414090827E+08, -7.280137194178307E+07, 1.376664815718207E+07,
2460553.500000000, A.D. 2024-Aug-31 00:00:00.0000, -3.422414249582785E+08, -8.406841315269154E+07, 1.305820406410001E+07,
2460560.500000000, A.D. 2024-Sep-07 00:00:00.0000, -3.405645321172782E+08, -9.524246403506948E+07, 1.233530617217971E+07,
2460567.500000000, A.D. 2024-Sep-14 00:00:00.0000, -3.385145064089569E+08, -1.063122173597664E+08, 1.159889163922615E+07,
2460574.500000000, A.D. 2024-Sep-21 00:00:00.0000, -3.360972125500659E+08, -1.172666805742244E+08, 1.084989126370197E+07,
2460581.500000000, A.D. 2024-Sep-28 00:00:00.0000, -3.333187245551290E+08, -1.280951705272181E+08, 1.008922925782169E+07,
2460588.500000000, A.D. 2024-Oct-05 00:00:00.0000, -3.301853130724782E+08, -1.387873097811467E+08, 9.317822774030961E+06,
2460595.500000000, A.D. 2024-Oct-12 00:00:00.0000, -3.267034322762591E+08, -1.493330215891806E+08, 8.536581456220567E+06,
2460602.500000000, A.D. 2024-Oct-19 00:00:00.0000, -3.228797080222921E+08, -1.597225238614949E+08, 7.746407148967177E+06,
2460609.500000000, A.D. 2024-Oct-26 00:00:00.0000, -3.187209272581233E+08, -1.699463229746589E+08, 6.948193697072871E+06,
2460616.500000000, A.D. 2024-Nov-02 00:00:00.0000, -3.142340283924490E+08, -1.799952076218114E+08, 6.142826794830240E+06,
2460623.500000000, A.D. 2024-Nov-09 00:00:00.0000, -3.094260924917448E+08, -1.898602427258323E+08, 5.331183873560354E+06,
2460630.500000000, A.D. 2024-Nov-16 00:00:00.0000, -3.043043352420245E+08, -1.995327634527107E+08, 4.514134021155044E+06,
2460637.500000000, A.D. 2024-Nov-23 00:00:00.0000, -2.988760995924190E+08, -2.090043694087284E+08, 3.692537921538889E+06,
2460644.500000000, A.D. 2024-Nov-30 00:00:00.0000, -2.931488488366964E+08, -2.182669190946778E+08, 2.867247787972569E+06,
2460651.500000000, A.D. 2024-Dec-07 00:00:00.0000, -2.871301596787531E+08, -2.273125242238272E+08, 2.039107282868549E+06,
2460658.500000000, A.D. 2024-Dec-14 00:00:00.0000, -2.808277159365956E+08, -2.361335427036582E+08, 1.208951584309429E+06,
2460665.500000000, A.D. 2024-Dec-21 00:00:00.0000, -2.742493051694519E+08, -2.447225715441025E+08, 3.776077076380402E+05,
2460672.500000000, A.D. 2024-Dec-28 00:00:00.0000, -2.674028162244537E+08, -2.530724426817144E+08, -4.541053440971971E+05,
2460679.500000000, A.D. 2025-Jan-04 00:00:00.0000, -2.602962350782943E+08, -2.611762193637163E+08, -1.285376647268817E+06,
2460686.500000000, A.D. 2025-Jan-11 00:00:00.0000, -2.529376407678142E+08, -2.690271914474292E+08, -2.115403341637343E+06,
2460693.500000000, A.D. 2025-Jan-18 00:00:00.0000, -2.453352022977528E+08, -2.766188705462067E+08, -2.943390523977861E+06,
2460700.500000000, A.D. 2025-Jan-25 00:00:00.0000, -2.374971762532760E+08, -2.839449855085341E+08, -3.768551114410147E+06,
2460707.500000000, A.D. 2025-Feb-01 00:00:00.0000, -2.294319049007571E+08, -2.909994782736124E+08, -4.590105717255205E+06,
2460714.500000000, A.D. 2025-Feb-08 00:00:00.0000, -2.211478146943073E+08, -2.977765000967240E+08, -5.407282481974438E+06,
2460721.500000000, A.D. 2025-Feb-15 00:00:00.0000, -2.126534151368314E+08, -3.042704081755316E+08, -6.219316970039725E+06,
$$EOE